STARLINK-30201          
1 57301U 23096M   26183.04005032 -.00003026  00000+0 -10051-3 0  9992
2 57301  43.0053 297.5681 0001587 275.0378  85.0292 15.27571597164202
STARLINK-30233          
1 57302U 23096N   26183.03362025  .00000577  00000+0  30492-4 0  9998
2 57302  43.0061 297.5019 0000687 293.6500  66.4280 15.27577558164203
STARLINK-30184          
1 57310U 23096W   26182.93852367  .00008812  00000+0  32878-3 0  9997
2 57310  43.0029 269.2511 0000902 310.4270  49.6503 15.27638446164521
STARLINK-6290           
1 57328U 23099A   26182.81199396  .00000748  00000+0  36728-4 0  9991
2 57328  43.0030 327.5865 0002137 267.3627  92.6980 15.27579463164441
STARLINK-6138           
1 57329U 23099B   26183.09924062  .00000057  00000+0  11604-4 0  9998
2 57329  43.0025 326.3017 0001196 272.2824  87.7891 15.27573849163571
STARLINK-6212           
1 57330U 23099C   26183.08510824  .00000442  00000+0  25634-4 0  9992
2 57330  43.0031 326.1978 0003548 257.4307 102.6148 15.27574041163575
STARLINK-6234           
1 57331U 23099D   26183.08896164  .00000634  00000+0  32547-4 0  9991
2 57331  43.0043 326.2264 0001157 268.5919  91.4800 15.27577384163577
STARLINK-5831           
1 57332U 23099E   26183.09153212  .00000366  00000+0  22833-4 0  9992
2 57332  43.0048 326.2437 0001072 276.6956  83.3774 15.27576561163578
STARLINK-5585           
1 57333U 23099F   26183.09538683  .00000298  00000+0  20356-4 0  9994
2 57333  43.0031 326.2731 0001153 277.8236  82.2485 15.27574124163572
STARLINK-5589           
1 57334U 23099G   26183.10308371 -.00009084  00000+0 -32061-3 0  9995
2 57334  43.0039 326.3259 0001479 272.0548  88.0135 15.27616649163576
STARLINK-6316           
1 57335U 23099H   26182.79464764  .00001630  00000+0  68749-4 0  9999
2 57335  43.0034 324.9099 0001691 273.5679  86.4979 15.27577364163562
STARLINK-6320           
1 57336U 23099J   26183.11514881  .00002407  00000+0  97018-4 0  9997
2 57336  43.0087 322.9904 0001800 276.3614  83.7033 15.27570279163611
STARLINK-6322           
1 57337U 23099K   26183.11080870  .00000825  00000+0  39487-4 0  9992
2 57337  43.0025 326.3860 0001131 277.4437  82.6286 15.27577127163577
STARLINK-6374           
1 57338U 23099L   26183.11337614  .00000371  00000+0  22999-4 0  9990
2 57338  43.0027 326.4041 0000852 284.8624  75.2134 15.27577570163573
STARLINK-6332           
1 57339U 23099M   26183.10694553 -.00000295  00000+0 -11917-5 0  9994
2 57339  43.0027 326.3561 0001029 281.6930  78.3806 15.27573619163572
STARLINK-6321           
1 57340U 23099N   26183.12878970  .00001701  00000+0  71331-4 0  9991
2 57340  43.0051 326.5127 0002317 285.5755  74.4840 15.27588890163572
STARLINK-6377           
1 57341U 23099P   26183.09360868  .00000709  00000+0  35303-4 0  9996
2 57341  43.0019 329.6660 0001281 262.1270  97.9436 15.27579567163533
STARLINK-6375           
1 57342U 23099Q   26183.10487261  .00000996  00000+0  45724-4 0  9992
2 57342  43.0024 322.9355 0001073 277.3008  82.7721 15.27578849163613
STARLINK-6379           
1 57343U 23099R   26183.12108645 -.00000396  00000+0 -48416-5 0  9999
2 57343  43.0061 326.4590 0001785 269.0703  90.9944 15.27584620163572
STARLINK-6380           
1 57344U 23099S   26182.81585662  .00002133  00000+0  87014-4 0  9998
2 57344  43.0034 327.6033 0001564 274.1154  85.9519 15.27587400163537
STARLINK-6373           
1 57345U 23099T   26183.09103764  .00000431  00000+0  25201-4 0  9998
2 57345  43.0016 329.6453 0001280 245.5403 114.5315 15.27578630163538
STARLINK-6359           
1 57346U 23099U   26182.86131647  .00000363  00000+0  22716-4 0  9996
2 57346  43.0028 324.5413 0002066 263.8197  96.2419 15.27577573163578
STARLINK-6378           
1 57347U 23099V   26183.09746354  .00000170  00000+0  15712-4 0  9994
2 57347  43.0026 329.6953 0001224 276.2915  83.7797 15.27576322163530
STARLINK-6372           
1 57348U 23099W   26183.11129663  .00002165  00000+0  88208-4 0  9992
2 57348  43.0067 322.9761 0001790 266.8188  93.2459 15.27573433163614
STARLINK-6376           
1 57349U 23099X   26183.08816996  .00002397  00000+0  96548-4 0  9994
2 57349  43.0031 322.8054 0001077 286.0145  74.0588 15.27591561164337
STARLINK-6362           
1 57350U 23099Y   26183.09169863  .00007097  00000+0  26732-3 0  9990
2 57350  43.0059 315.7733 0001913 273.3553  86.7080 15.27564049163680
STARLINK-6331           
1 57351U 23099Z   26183.07274750  .00000536  00000+0  29014-4 0  9999
2 57351  43.0011 322.6904 0001225 269.6906  90.3805 15.27579637163610
STARLINK-6297           
1 57352U 23099AA  26183.08525566  .00000677  00000+0  34134-4 0  9990
2 57352  43.0038 315.7253 0001586 280.9829  79.0844 15.27579036163698
STARLINK-6324           
1 57353U 23099AB  26183.09459011  .00000154  00000+0  15111-4 0  9997
2 57353  43.0035 322.8522 0001266 267.0119  93.0587 15.27579458163617
STARLINK-6293           
1 57354U 23099AC  26183.08268506 -.00000221  00000+0  14959-5 0  9990
2 57354  43.0041 315.7002 0001663 277.9968  82.0695 15.27581013163698
