OBJECT_NAME,OBJECT_ID,EPOCH,MEAN_MOTION,ECCENTRICITY,INCLINATION,RA_OF_ASC_NODE,ARG_OF_PERICENTER,MEAN_ANOMALY,EPHEMERIS_TYPE,CLASSIFICATION_TYPE,NORAD_CAT_ID,ELEMENT_SET_NO,REV_AT_EPOCH,BSTAR,MEAN_MOTION_DOT,MEAN_MOTION_DDOT
STARLINK-30201,2023-096M,2026-07-02T00:57:40.347648,15.27571597,.00015876,43.0053,297.5681,275.0378,85.0292,0,U,57301,999,16420,-.1005102E-3,-.3026E-4,0
STARLINK-30233,2023-096N,2026-07-02T00:48:24.789600,15.27577558,.00006875,43.0061,297.5019,293.6500,66.4280,0,U,57302,999,16420,.30492488E-4,.577E-5,0
STARLINK-30184,2023-096W,2026-07-01T22:31:28.445088,15.27638446,.00009026,43.0029,269.2511,310.4270,49.6503,0,U,57310,999,16452,.32877514E-3,.8812E-4,0
STARLINK-6290,2023-099A,2026-07-01T19:29:16.278144,15.27579463,.00021376,43.0030,327.5865,267.3627,92.6980,0,U,57328,999,16444,.36727524E-4,.748E-5,0
STARLINK-6138,2023-099B,2026-07-02T02:22:54.389568,15.27573849,.00011965,43.0025,326.3017,272.2824,87.7891,0,U,57329,999,16357,.1160417E-4,.57E-6,0
STARLINK-6212,2023-099C,2026-07-02T02:02:33.351936,15.27574041,.00035481,43.0031,326.1978,257.4307,102.6148,0,U,57330,999,16357,.256341E-4,.442E-5,0
STARLINK-6234,2023-099D,2026-07-02T02:08:06.285696,15.27577384,.00011573,43.0043,326.2264,268.5919,91.4800,0,U,57331,999,16357,.32547016E-4,.634E-5,0
STARLINK-5831,2023-099E,2026-07-02T02:11:48.375168,15.27576561,.00010721,43.0048,326.2437,276.6956,83.3774,0,U,57332,999,16357,.22832693E-4,.366E-5,0
STARLINK-5585,2023-099F,2026-07-02T02:17:21.422112,15.27574124,.00011537,43.0031,326.2731,277.8236,82.2485,0,U,57333,999,16357,.20355905E-4,.298E-5,0
STARLINK-5589,2023-099G,2026-07-02T02:28:26.432544,15.27616649,.0001479,43.0039,326.3259,272.0548,88.0135,0,U,57334,999,16357,-.32061196E-3,-.9084E-4,0
STARLINK-6316,2023-099H,2026-07-01T19:04:17.556096,15.27577364,.00016918,43.0034,324.9099,273.5679,86.4979,0,U,57335,999,16356,.68749103E-4,.163E-4,0
STARLINK-6320,2023-099J,2026-07-02T02:45:48.857184,15.27570279,.00018002,43.0087,322.9904,276.3614,83.7033,0,U,57336,999,16361,.97018165E-4,.2407E-4,0
STARLINK-6322,2023-099K,2026-07-02T02:39:33.871680,15.27577127,.00011318,43.0025,326.3860,277.4437,82.6286,0,U,57337,999,16357,.3948683E-4,.825E-5,0
STARLINK-6374,2023-099L,2026-07-02T02:43:15.698496,15.27577570,.00008528,43.0027,326.4041,284.8624,75.2134,0,U,57338,999,16357,.22999137E-4,.371E-5,0
STARLINK-6332,2023-099M,2026-07-02T02:34:00.093792,15.27573619,.00010292,43.0027,326.3561,281.6930,78.3806,0,U,57339,999,16357,-.1191711E-5,-.295E-5,0
STARLINK-6321,2023-099N,2026-07-02T03:05:27.430080,15.27588890,.00023175,43.0051,326.5127,285.5755,74.4840,0,U,57340,999,16357,.7133064E-4,.1701E-4,0
STARLINK-6377,2023-099P,2026-07-02T02:14:47.789952,15.27579567,.0001281,43.0019,329.6660,262.1270,97.9436,0,U,57341,999,16353,.35302868E-4,.709E-5,0
STARLINK-6375,2023-099Q,2026-07-02T02:31:00.993504,15.27578849,.00010739,43.0024,322.9355,277.3008,82.7721,0,U,57342,999,16361,.45724315E-4,.996E-5,0
STARLINK-6379,2023-099R,2026-07-02T02:54:21.869280,15.27584620,.00017851,43.0061,326.4590,269.0703,90.9944,0,U,57343,999,16357,-.4841607E-5,-.396E-5,0
STARLINK-6380,2023-099S,2026-07-01T19:34:50.011968,15.27587400,.00015646,43.0034,327.6033,274.1154,85.9519,0,U,57344,999,16353,.87014233E-4,.2133E-4,0
STARLINK-6373,2023-099T,2026-07-02T02:11:05.652096,15.27578630,.00012804,43.0016,329.6453,245.5403,114.5315,0,U,57345,999,16353,.25200651E-4,.431E-5,0
STARLINK-6359,2023-099U,2026-07-01T20:40:17.743008,15.27577573,.00020666,43.0028,324.5413,263.8197,96.2419,0,U,57346,999,16357,.22716104E-4,.363E-5,0
STARLINK-6378,2023-099V,2026-07-02T02:20:20.849856,15.27576322,.00012244,43.0026,329.6953,276.2915,83.7797,0,U,57347,999,16353,.15712097E-4,.17E-5,0
STARLINK-6372,2023-099W,2026-07-02T02:40:16.028832,15.27573433,.000179,43.0067,322.9761,266.8188,93.2459,0,U,57348,999,16361,.88208483E-4,.2165E-4,0
STARLINK-6376,2023-099X,2026-07-02T02:06:57.884544,15.27591561,.00010779,43.0031,322.8054,286.0145,74.0588,0,U,57349,999,16433,.96548258E-4,.2397E-4,0
STARLINK-6362,2023-099Y,2026-07-02T02:12:02.761632,15.27564049,.00019132,43.0059,315.7733,273.3553,86.7080,0,U,57350,999,16368,.26732303E-3,.7097E-4,0
STARLINK-6331,2023-099Z,2026-07-02T01:44:45.384000,15.27579637,.00012259,43.0011,322.6904,269.6906,90.3805,0,U,57351,999,16361,.29014155E-4,.536E-5,0
STARLINK-6297,2023-099AA,2026-07-02T02:02:46.089024,15.27579036,.00015865,43.0038,315.7253,280.9829,79.0844,0,U,57352,999,16369,.34133905E-4,.677E-5,0
STARLINK-6324,2023-099AB,2026-07-02T02:16:12.585504,15.27579458,.00012667,43.0035,322.8522,267.0119,93.0587,0,U,57353,999,16361,.15110834E-4,.154E-5,0
STARLINK-6293,2023-099AC,2026-07-02T01:59:03.989184,15.27581013,.00016636,43.0041,315.7002,277.9968,82.0695,0,U,57354,999,16369,.1495912E-5,-.221E-5,0
